{"type":"FeatureCollection","features":[{"type":"Feature","geometry":{"geodesic":false,"type":"Point","coordinates":[80.02978576810303,12.802115692808332]},"id":"0","properties":{"hotspot":1,"lst":40.09611505999999}},{"type":"Feature","geometry":{"geodesic":false,"type":"Point","coordinates":[80.02753997989272,12.80436148101863]},"id":"1","properties":{"hotspot":1,"lst":41.10101294000003}},{"type":"Feature","geometry":{"geodesic":false,"type":"Point","coordinates":[80.00732788600004,12.806607269228929]},"id":"2","properties":{"hotspot":1,"lst":39.81412841000002}},{"type":"Feature","geometry":{"geodesic":false,"type":"Point","coordinates":[80.02978576810303,12.808853057439228]},"id":"3","properties":{"hotspot":1,"lst":40.81902629000004}},{"type":"Feature","geometry":{"geodesic":false,"type":"Point","coordinates":[80.00059052136913,12.811098845649527]},"id":"4","properties":{"hotspot":1,"lst":40.24992596000004}},{"type":"Feature","geometry":{"geodesic":false,"type":"Point","coordinates":[80.0769473205193,12.811098845649527]},"id":"5","properties":{"hotspot":1,"lst":39.749186030000004}},{"type":"Feature","geometry":{"geodesic":false,"type":"Point","coordinates":[80.02304840347213,12.820081998490721]},"id":"6","properties":{"hotspot":1,"lst":39.71329682000001}},{"type":"Feature","geometry":{"geodesic":false,"type":"Point","coordinates":[80.00283630957944,12.82457357491132]},"id":"7","properties":{"hotspot":1,"lst":39.81241940000001}},{"type":"Feature","geometry":{"geodesic":false,"type":"Point","coordinates":[80.00283630957944,12.826819363121619]},"id":"8","properties":{"hotspot":1,"lst":40.23283586000002}},{"type":"Feature","geometry":{"geodesic":false,"type":"Point","coordinates":[80.02080261526183,12.826819363121619]},"id":"9","properties":{"hotspot":1,"lst":40.02091862000003}},{"type":"Feature","geometry":{"geodesic":false,"type":"Point","coordinates":[80.02080261526183,12.829065151331918]},"id":"10","properties":{"hotspot":1,"lst":40.19181962000005}},{"type":"Feature","geometry":{"geodesic":false,"type":"Point","coordinates":[80.02304840347213,12.829065151331918]},"id":"11","properties":{"hotspot":1,"lst":39.56290394000001}},{"type":"Feature","geometry":{"geodesic":false,"type":"Point","coordinates":[80.01855682705153,12.833556727752514]},"id":"12","properties":{"hotspot":1,"lst":40.017500600000005}},{"type":"Feature","geometry":{"geodesic":false,"type":"Point","coordinates":[80.04775207378542,12.833556727752514]},"id":"13","properties":{"hotspot":1,"lst":39.60904721000003}},{"type":"Feature","geometry":{"geodesic":false,"type":"Point","coordinates":[80.04999786199572,12.833556727752514]},"id":"14","properties":{"hotspot":1,"lst":40.49602340000001}},{"type":"Feature","geometry":{"geodesic":false,"type":"Point","coordinates":[80.05224365020601,12.835802515962813]},"id":"15","properties":{"hotspot":1,"lst":40.12687724000003}},{"type":"Feature","geometry":{"geodesic":false,"type":"Point","coordinates":[80.00732788600004,12.838048304173112]},"id":"16","properties":{"hotspot":1,"lst":40.24308991999999}},{"type":"Feature","geometry":{"geodesic":false,"type":"Point","coordinates":[80.05448943841631,12.838048304173112]},"id":"17","properties":{"hotspot":1,"lst":40.03800871999999}},{"type":"Feature","geometry":{"geodesic":false,"type":"Point","coordinates":[80.05673522662661,12.84253988059371]},"id":"18","properties":{"hotspot":1,"lst":39.64493642000002}},{"type":"Feature","geometry":{"geodesic":false,"type":"Point","coordinates":[80.0589810148369,12.84253988059371]},"id":"19","properties":{"hotspot":1,"lst":40.38322874000005}},{"type":"Feature","geometry":{"geodesic":false,"type":"Point","coordinates":[80.0612268030472,12.84253988059371]},"id":"20","properties":{"hotspot":1,"lst":40.3251224}},{"type":"Feature","geometry":{"geodesic":false,"type":"Point","coordinates":[80.0612268030472,12.84478566880401]},"id":"21","properties":{"hotspot":1,"lst":40.441335080000044}},{"type":"Feature","geometry":{"geodesic":false,"type":"Point","coordinates":[80.00059052136913,12.853768821645204]},"id":"22","properties":{"hotspot":1,"lst":39.58683008000003}},{"type":"Feature","geometry":{"geodesic":false,"type":"Point","coordinates":[80.01855682705153,12.853768821645204]},"id":"23","properties":{"hotspot":1,"lst":41.776071890000026}},{"type":"Feature","geometry":{"geodesic":false,"type":"Point","coordinates":[80.02080261526183,12.853768821645204]},"id":"24","properties":{"hotspot":1,"lst":40.913021840000056}},{"type":"Feature","geometry":{"geodesic":false,"type":"Point","coordinates":[80.02304840347213,12.853768821645204]},"id":"25","properties":{"hotspot":1,"lst":40.52336756}},{"type":"Feature","geometry":{"geodesic":false,"type":"Point","coordinates":[80.02304840347213,12.856014609855503]},"id":"26","properties":{"hotspot":1,"lst":41.82050615}},{"type":"Feature","geometry":{"geodesic":false,"type":"Point","coordinates":[80.01855682705153,12.858260398065802]},"id":"27","properties":{"hotspot":1,"lst":39.84318158000002}},{"type":"Feature","geometry":{"geodesic":false,"type":"Point","coordinates":[80.02080261526183,12.858260398065802]},"id":"28","properties":{"hotspot":1,"lst":39.96964832000003}},{"type":"Feature","geometry":{"geodesic":false,"type":"Point","coordinates":[80.02529419168242,12.858260398065802]},"id":"29","properties":{"hotspot":1,"lst":41.391544640000006}},{"type":"Feature","geometry":{"geodesic":false,"type":"Point","coordinates":[80.0679641676781,12.858260398065802]},"id":"30","properties":{"hotspot":1,"lst":39.63468236000003}},{"type":"Feature","geometry":{"geodesic":false,"type":"Point","coordinates":[80.0702099558884,12.858260398065802]},"id":"31","properties":{"hotspot":1,"lst":40.10978713999998}}]}